IRIDIUM 124             
1 42810U 17039H   26066.27498683  .00000574  00000+0  16481-3 0  9990
2 42810  86.4536 332.9844 0002102  84.4331 275.7109 14.43272373460412
IRIDIUM 128             
1 42811U 17039J   26066.48665072  .00000007  00000+0 -44958-5 0  9996
2 42811  86.3913  67.6666 0002081  95.2322 264.9111 14.34217644455407
IRIDIUM 121             
1 42812U 17039K   26066.44517334 -.00000004  00000+0 -85948-5 0  9992
2 42812  86.3968  36.1760 0002129  89.4945 270.6494 14.34217377455246
IRIDIUM 133             
1 42955U 17061A   26066.51836447 -.00000005  00000+0 -89721-5 0  9996
2 42955  86.3912  67.7690 0002044  90.4643 269.6787 14.34217368440201
IRIDIUM 100             
1 42956U 17061B   26066.51202142  .00000009  00000+0 -39376-5 0  9990
2 42956  86.3912  67.6926 0002038  89.6507 270.4922 14.34217414440208
IRIDIUM 122             
1 42957U 17061C   26066.55007479 -.00000032  00000+0 -18523-4 0  9998
2 42957  86.3910  67.6766 0001996  88.1007 272.0417 14.34217136440219
IRIDIUM 129             
1 42958U 17061D   26066.50567910 -.00000034  00000+0 -19316-4 0  9998
2 42958  86.3912  67.7611 0002371  84.6343 275.5123 14.34217325440227
IRIDIUM 119             
1 42959U 17061E   26066.47396586  .00000004  00000+0 -56343-5 0  9992
2 42959  86.3913  67.7698 0002102  85.4903 274.6533 14.34217541440233
IRIDIUM 107             
1 42960U 17061F   26066.49299281 -.00000009  00000+0 -10169-4 0  9991
2 42960  86.3914  67.7825 0001766  86.9649 273.1749 14.34217455440244
IRIDIUM 132             
1 42961U 17061G   26066.49933534 -.00000015  00000+0 -12243-4 0  9990
2 42961  86.3912  67.7599 0001977  89.8046 270.3377 14.34217360440249
IRIDIUM 136             
1 42962U 17061H   26066.53104894 -.00000005  00000+0 -87480-5 0  9990
2 42962  86.3911  67.7527 0002020  86.7832 273.3595 14.34217468440265
IRIDIUM 139             
1 42963U 17061J   26066.53739205 -.00000006  00000+0 -91440-5 0  9993
2 42963  86.3914  67.8106 0001984  91.3959 268.7464 14.34217408440271
IRIDIUM 125             
1 42964U 17061K   26066.45493716 -.00000021  00000+0 -14536-4 0  9996
2 42964  86.3913  67.9043 0001804  74.5611 285.5784 14.34217329440275
IRIDIUM 135             
1 43070U 17083A   26066.56860258  .00000400  00000+0  13583-3 0  9999
2 43070  86.4022   4.4791 0002181  86.0633 274.0813 14.34220700429587
IRIDIUM 138             
1 43071U 17083B   26066.31489857 -.00000015  00000+0 -12547-4 0  9999
2 43071  86.4028   4.2649 0002197  75.3837 284.7602 14.34217260429534
IRIDIUM 116             
1 43072U 17083C   26066.35295348 -.00000004  00000+0 -83400-5 0  9999
2 43072  86.4017   4.5563 0001984  93.5243 266.6180 14.34217511429570
IRIDIUM 130             
1 43073U 17083D   26066.53054526  .00000006  00000+0 -49671-5 0  9994
2 43073  86.4025   4.7475 0001813  90.3384 269.8020 14.34217591429549
