[{"OBJECT_NAME":"IRIDIUM 124","OBJECT_ID":"2017-039H","EPOCH":"2026-03-07T06:35:58.862112","MEAN_MOTION":14.43272373,"ECCENTRICITY":0.0002102,"INCLINATION":86.4536,"RA_OF_ASC_NODE":332.9844,"ARG_OF_PERICENTER":84.4331,"MEAN_ANOMALY":275.7109,"EPHEMERIS_TYPE":0,"CLASSIFICATION_TYPE":"U","NORAD_CAT_ID":42810,"ELEMENT_SET_NO":999,"REV_AT_EPOCH":46041,"BSTAR":0.00016481,"MEAN_MOTION_DOT":5.74e-6,"MEAN_MOTION_DDOT":0},{"OBJECT_NAME":"IRIDIUM 128","OBJECT_ID":"2017-039J","EPOCH":"2026-03-07T11:40:46.622208","MEAN_MOTION":14.34217644,"ECCENTRICITY":0.00020817,"INCLINATION":86.3913,"RA_OF_ASC_NODE":67.6666,"ARG_OF_PERICENTER":95.2322,"MEAN_ANOMALY":264.9111,"EPHEMERIS_TYPE":0,"CLASSIFICATION_TYPE":"U","NORAD_CAT_ID":42811,"ELEMENT_SET_NO":999,"REV_AT_EPOCH":45540,"BSTAR":-4.495823e-6,"MEAN_MOTION_DOT":7.0e-8,"MEAN_MOTION_DDOT":0},{"OBJECT_NAME":"IRIDIUM 121","OBJECT_ID":"2017-039K","EPOCH":"2026-03-07T10:41:02.976576","MEAN_MOTION":14.34217377,"ECCENTRICITY":0.00021291,"INCLINATION":86.3968,"RA_OF_ASC_NODE":36.176,"ARG_OF_PERICENTER":89.4945,"MEAN_ANOMALY":270.6494,"EPHEMERIS_TYPE":0,"CLASSIFICATION_TYPE":"U","NORAD_CAT_ID":42812,"ELEMENT_SET_NO":999,"REV_AT_EPOCH":45524,"BSTAR":-8.59476e-6,"MEAN_MOTION_DOT":-4.0e-8,"MEAN_MOTION_DDOT":0},{"OBJECT_NAME":"IRIDIUM 133","OBJECT_ID":"2017-061A","EPOCH":"2026-03-07T12:26:26.690208","MEAN_MOTION":14.34217368,"ECCENTRICITY":0.00020441,"INCLINATION":86.3912,"RA_OF_ASC_NODE":67.769,"ARG_OF_PERICENTER":90.4643,"MEAN_ANOMALY":269.6787,"EPHEMERIS_TYPE":0,"CLASSIFICATION_TYPE":"U","NORAD_CAT_ID":42955,"ELEMENT_SET_NO":999,"REV_AT_EPOCH":44020,"BSTAR":-8.972059e-6,"MEAN_MOTION_DOT":-5.0e-8,"MEAN_MOTION_DDOT":0},{"OBJECT_NAME":"IRIDIUM 100","OBJECT_ID":"2017-061B","EPOCH":"2026-03-07T12:17:18.650688","MEAN_MOTION":14.34217414,"ECCENTRICITY":0.00020383,"INCLINATION":86.3912,"RA_OF_ASC_NODE":67.6926,"ARG_OF_PERICENTER":89.6507,"MEAN_ANOMALY":270.4922,"EPHEMERIS_TYPE":0,"CLASSIFICATION_TYPE":"U","NORAD_CAT_ID":42956,"ELEMENT_SET_NO":999,"REV_AT_EPOCH":44020,"BSTAR":-3.937614e-6,"MEAN_MOTION_DOT":9.0e-8,"MEAN_MOTION_DDOT":0},{"OBJECT_NAME":"IRIDIUM 122","OBJECT_ID":"2017-061C","EPOCH":"2026-03-07T13:12:06.461856","MEAN_MOTION":14.34217136,"ECCENTRICITY":0.00019961,"INCLINATION":86.391,"RA_OF_ASC_NODE":67.6766,"ARG_OF_PERICENTER":88.1007,"MEAN_ANOMALY":272.0417,"EPHEMERIS_TYPE":0,"CLASSIFICATION_TYPE":"U","NORAD_CAT_ID":42957,"ELEMENT_SET_NO":999,"REV_AT_EPOCH":44021,"BSTAR":-1.8523398e-5,"MEAN_MOTION_DOT":-3.2e-7,"MEAN_MOTION_DDOT":0},{"OBJECT_NAME":"IRIDIUM 129","OBJECT_ID":"2017-061D","EPOCH":"2026-03-07T12:08:10.674240","MEAN_MOTION":14.34217325,"ECCENTRICITY":0.00023713,"INCLINATION":86.3912,"RA_OF_ASC_NODE":67.7611,"ARG_OF_PERICENTER":84.6343,"MEAN_ANOMALY":275.5123,"EPHEMERIS_TYPE":0,"CLASSIFICATION_TYPE":"U","NORAD_CAT_ID":42958,"ELEMENT_SET_NO":999,"REV_AT_EPOCH":44022,"BSTAR":-1.9315746e-5,"MEAN_MOTION_DOT":-3.4e-7,"MEAN_MOTION_DDOT":0},{"OBJECT_NAME":"IRIDIUM 119","OBJECT_ID":"2017-061E","EPOCH":"2026-03-07T11:22:30.650304","MEAN_MOTION":14.34217541,"ECCENTRICITY":0.00021023,"INCLINATION":86.3913,"RA_OF_ASC_NODE":67.7698,"ARG_OF_PERICENTER":85.4903,"MEAN_ANOMALY":274.6533,"EPHEMERIS_TYPE":0,"CLASSIFICATION_TYPE":"U","NORAD_CAT_ID":42959,"ELEMENT_SET_NO":999,"REV_AT_EPOCH":44023,"BSTAR":-5.634334e-6,"MEAN_MOTION_DOT":4.0e-8,"MEAN_MOTION_DDOT":0},{"OBJECT_NAME":"IRIDIUM 107","OBJECT_ID":"2017-061F","EPOCH":"2026-03-07T11:49:54.578784","MEAN_MOTION":14.34217455,"ECCENTRICITY":0.00017661,"INCLINATION":86.3914,"RA_OF_ASC_NODE":67.7825,"ARG_OF_PERICENTER":86.9649,"MEAN_ANOMALY":273.1749,"EPHEMERIS_TYPE":0,"CLASSIFICATION_TYPE":"U","NORAD_CAT_ID":42960,"ELEMENT_SET_NO":999,"REV_AT_EPOCH":44024,"BSTAR":-1.0168652e-5,"MEAN_MOTION_DOT":-9.0e-8,"MEAN_MOTION_DDOT":0},{"OBJECT_NAME":"IRIDIUM 132","OBJECT_ID":"2017-061G","EPOCH":"2026-03-07T11:59:02.573376","MEAN_MOTION":14.3421736,"ECCENTRICITY":0.00019773,"INCLINATION":86.3912,"RA_OF_ASC_NODE":67.7599,"ARG_OF_PERICENTER":89.8046,"MEAN_ANOMALY":270.3377,"EPHEMERIS_TYPE":0,"CLASSIFICATION_TYPE":"U","NORAD_CAT_ID":42961,"ELEMENT_SET_NO":999,"REV_AT_EPOCH":44024,"BSTAR":-1.2242933e-5,"MEAN_MOTION_DOT":-1.5e-7,"MEAN_MOTION_DDOT":0},{"OBJECT_NAME":"IRIDIUM 136","OBJECT_ID":"2017-061H","EPOCH":"2026-03-07T12:44:42.628416","MEAN_MOTION":14.34217468,"ECCENTRICITY":0.00020206,"INCLINATION":86.3911,"RA_OF_ASC_NODE":67.7527,"ARG_OF_PERICENTER":86.7832,"MEAN_ANOMALY":273.3595,"EPHEMERIS_TYPE":0,"CLASSIFICATION_TYPE":"U","NORAD_CAT_ID":42962,"ELEMENT_SET_NO":999,"REV_AT_EPOCH":44026,"BSTAR":-8.747958e-6,"MEAN_MOTION_DOT":-5.0e-8,"MEAN_MOTION_DDOT":0},{"OBJECT_NAME":"IRIDIUM 139","OBJECT_ID":"2017-061J","EPOCH":"2026-03-07T12:53:50.673120","MEAN_MOTION":14.34217408,"ECCENTRICITY":0.00019847,"INCLINATION":86.3914,"RA_OF_ASC_NODE":67.8106,"ARG_OF_PERICENTER":91.3959,"MEAN_ANOMALY":268.7464,"EPHEMERIS_TYPE":0,"CLASSIFICATION_TYPE":"U","NORAD_CAT_ID":42963,"ELEMENT_SET_NO":999,"REV_AT_EPOCH":44027,"BSTAR":-9.143999e-6,"MEAN_MOTION_DOT":-6.0e-8,"MEAN_MOTION_DDOT":0},{"OBJECT_NAME":"IRIDIUM 125","OBJECT_ID":"2017-061K","EPOCH":"2026-03-07T10:55:06.570624","MEAN_MOTION":14.34217329,"ECCENTRICITY":0.00018042,"INCLINATION":86.3913,"RA_OF_ASC_NODE":67.9043,"ARG_OF_PERICENTER":74.5611,"MEAN_ANOMALY":285.5784,"EPHEMERIS_TYPE":0,"CLASSIFICATION_TYPE":"U","NORAD_CAT_ID":42964,"ELEMENT_SET_NO":999,"REV_AT_EPOCH":44027,"BSTAR":-1.4536113e-5,"MEAN_MOTION_DOT":-2.1e-7,"MEAN_MOTION_DDOT":0},{"OBJECT_NAME":"IRIDIUM 135","OBJECT_ID":"2017-083A","EPOCH":"2026-03-07T13:38:47.262912","MEAN_MOTION":14.342207,"ECCENTRICITY":0.0002181,"INCLINATION":86.4022,"RA_OF_ASC_NODE":4.4791,"ARG_OF_PERICENTER":86.0633,"MEAN_ANOMALY":274.0813,"EPHEMERIS_TYPE":0,"CLASSIFICATION_TYPE":"U","NORAD_CAT_ID":43070,"ELEMENT_SET_NO":999,"REV_AT_EPOCH":42958,"BSTAR":0.00013582942,"MEAN_MOTION_DOT":4.0e-6,"MEAN_MOTION_DDOT":0},{"OBJECT_NAME":"IRIDIUM 138","OBJECT_ID":"2017-083B","EPOCH":"2026-03-07T07:33:27.236448","MEAN_MOTION":14.3421726,"ECCENTRICITY":0.0002197,"INCLINATION":86.4028,"RA_OF_ASC_NODE":4.2649,"ARG_OF_PERICENTER":75.3837,"MEAN_ANOMALY":284.7602,"EPHEMERIS_TYPE":0,"CLASSIFICATION_TYPE":"U","NORAD_CAT_ID":43071,"ELEMENT_SET_NO":999,"REV_AT_EPOCH":42953,"BSTAR":-1.2547e-5,"MEAN_MOTION_DOT":-1.5e-7,"MEAN_MOTION_DDOT":0},{"OBJECT_NAME":"IRIDIUM 116","OBJECT_ID":"2017-083C","EPOCH":"2026-03-07T08:28:15.180672","MEAN_MOTION":14.34217511,"ECCENTRICITY":0.00019846,"INCLINATION":86.4017,"RA_OF_ASC_NODE":4.5563,"ARG_OF_PERICENTER":93.5243,"MEAN_ANOMALY":266.618,"EPHEMERIS_TYPE":0,"CLASSIFICATION_TYPE":"U","NORAD_CAT_ID":43072,"ELEMENT_SET_NO":999,"REV_AT_EPOCH":42957,"BSTAR":-8.340043e-6,"MEAN_MOTION_DOT":-4.0e-8,"MEAN_MOTION_DDOT":0},{"OBJECT_NAME":"IRIDIUM 130","OBJECT_ID":"2017-083D","EPOCH":"2026-03-07T12:43:59.110464","MEAN_MOTION":14.34217591,"ECCENTRICITY":0.00018136,"INCLINATION":86.4025,"RA_OF_ASC_NODE":4.7475,"ARG_OF_PERICENTER":90.3384,"MEAN_ANOMALY":269.802,"EPHEMERIS_TYPE":0,"CLASSIFICATION_TYPE":"U","NORAD_CAT_ID":43073,"ELEMENT_SET_NO":999,"REV_AT_EPOCH":42954,"BSTAR":-4.967109e-6,"MEAN_MOTION_DOT":6.0e-8,"MEAN_MOTION_DDOT":0}]
